FENGYUN 3D              
1 43010U 17072A   26204.23036387  .00000010  00000+0  26583-4 0  9999
2 43010  99.0155 179.3083 0001063 358.3816   1.7356 14.19745374450101
NOAA 20 (JPSS-1)        
1 43013U 17073A   26204.30174216  .00000045  00000+0  42539-4 0  9992
2 43013  98.7773 143.4446 0001652 115.3492 244.7856 14.19517665449591
GOES 17                 
1 43226U 18022A   26204.28682437 -.00000179  00000+0  00000+0 0  9990
2 43226   1.0271  85.1452 0000703  57.3628 172.2704  1.00271906 30783
SENTINEL-3B             
1 43437U 18039A   26204.16632218  .00000076  00000+0  49282-4 0  9996
2 43437  98.6229 271.1788 0001305 118.4343 241.6969 14.26738051429252
FENGYUN 2H              
1 43491U 18050A   26204.12897714 -.00000124  00000+0  00000+0 0  9994
2 43491   3.1216  78.6529 0002043 123.8118 223.8394  1.00267358 29796
METOP-C                 
1 43689U 18087A   26204.24714249  .00000067  00000+0  50534-4 0  9994
2 43689  98.6623 263.1876 0002070  83.3815 276.7598 14.21504413399950
GEO-KOMPSAT-2A          
1 43823U 18100A   26204.28127588 -.00000339  00000+0  00000+0 0  9999
2 43823   0.0189  95.6445 0002527   2.9354  71.9532  1.00271143 27995
METEOR-M2 2             
1 44387U 19038A   26204.28083708  .00000320  00000+0  15807-3 0  9995
2 44387  98.9174 192.1029 0000219 350.0703  10.0471 14.24375321366437
ARKTIKA-M 1             
1 47719U 21016A   26198.89672402 -.00000295  00000+0  00000+0 0  9997
2 47719  63.2571  53.1467 7298516 270.0868  14.5016  2.00610215 39409
FENGYUN 3E              
1 49008U 21062A   26204.28072749  .00000227  00000+0  12773-3 0  9998
2 49008  98.7513 207.2879 0001846  25.4164 334.7103 14.19907225261709
GOES 18                 
1 51850U 22021A   26204.30380817  .00000000  00000+0  00000+0 0  9998
2 51850   0.0154  76.4488 0000553  69.0245 127.9320  1.00271141  6958
NOAA 21 (JPSS-2)        
1 54234U 22150A   26204.26342409  .00000012  00000+0  26366-4 0  9991
2 54234  98.7059 142.4468 0002914  90.1668 269.9842 14.19542003191665
METEOSAT-12 (MTG-I1)    
1 54743U 22170C   26204.25579576 -.00000004  00000+0  00000+0 0  9998
2 54743   0.7333  21.0463 0004166  81.1525 290.4751  1.00270121 13349
TIANMU-1 03             
1 55973U 23039A   26204.31938594  .00016029  00000+0  30596-3 0  9995
2 55973  97.5251  19.7330 0001907 354.4161   5.7068 15.48223410186421
TIANMU-1 04             
1 55974U 23039B   26204.29451339  .00016802  00000+0  31361-3 0  9990
2 55974  97.5189  18.8644 0002225 340.0023  20.1140 15.48855557186438
TIANMU-1 05             
1 55975U 23039C   26204.30192380  .00015912  00000+0  30455-3 0  9995
2 55975  97.5232  19.3167 0002284  26.2458 333.8907 15.48145431186409
TIANMU-1 06             
1 55976U 23039D   26204.30024200  .00016499  00000+0  30914-3 0  9992
2 55976  97.5240  19.9876 0002288  14.2953 345.8361 15.48749580186438
FENGYUN 3G              
1 56232U 23055A   26204.25791934  .00024549  00000+0  37674-3 0  9990
2 56232  49.9913 159.9499 0006808  94.1896 265.9850 15.54076137185615
METEOR-M2 3             
1 57166U 23091A   26204.28351201 -.00000010  00000+0  14390-4 0  9998
2 57166  98.6063 258.5192 0005041  72.2516 287.9213 14.24049399159657
TIANMU-1 07             
1 57399U 23101A   26204.33254105  .00006475  00000+0  22422-3 0  9993
2 57399  97.2576 254.1752 0003117  47.7059 312.4446 15.30185286167176
TIANMU-1 08             
1 57400U 23101B   26204.29909002  .00006492  00000+0  22476-3 0  9992
2 57400  97.2566 253.9080 0003787  23.7304 336.4111 15.30187899167165
TIANMU-1 09             
1 57401U 23101C   26204.28163095  .00006799  00000+0  23497-3 0  9990
2 57401  97.2524 253.2883 0003720  45.8645 314.2901 15.30231416167160
TIANMU-1 10             
1 57402U 23101D   26204.24991535  .00006377  00000+0  22070-3 0  9993
2 57402  97.2603 254.3448 0004886  31.5401 328.6132 15.30204480167159
FENGYUN 3F              
1 57490U 23111A   26204.26376872  .00000023  00000+0  31099-4 0  9998
2 57490  98.6820 273.5971 0001113  75.1404 284.9896 14.19944413153983
ARKTIKA-M 2             
1 58584U 23198A   26202.15670971  .00000142  00000+0  00000+0 0  9996
2 58584  63.2169 150.5623 6912649 267.3229  18.7284  2.00607150 19000
TIANMU-1 11             
1 58645U 23205A   26204.28759140  .00005797  00000+0  21923-3 0  9997
2 58645  97.3449 225.2846 0007272 226.3756 133.6881 15.27323394143034
TIANMU-1 12             
1 58646U 23205B   26203.67156534  .00004112  00000+0  15785-3 0  9997
2 58646  97.3438 224.4213 0006487 209.2071 150.8807 15.27003015142920
TIANMU-1 13             
1 58647U 23205C   26204.29436052  .00005800  00000+0  22051-3 0  9992
2 58647  97.3466 225.3179 0006759 181.5550 178.5669 15.27149714143010
TIANMU-1 14             
1 58648U 23205D   26204.27852287  .00006060  00000+0  22994-3 0  9998
2 58648  97.3403 224.4559 0007344 188.5228 171.5888 15.27193552143019
TIANMU-1 19             
1 58660U 23208A   26204.28010315  .00009219  00000+0  30012-3 0  9993
2 58660  97.4523 320.7826 0005387 169.9566 190.1784 15.32070041142853
