OBJECT_NAME,OBJECT_ID,EPOCH,MEAN_MOTION,ECCENTRICITY,INCLINATION,RA_OF_ASC_NODE,ARG_OF_PERICENTER,MEAN_ANOMALY,EPHEMERIS_TYPE,CLASSIFICATION_TYPE,NORAD_CAT_ID,ELEMENT_SET_NO,REV_AT_EPOCH,BSTAR,MEAN_MOTION_DOT,MEAN_MOTION_DDOT
FENGYUN 3D,2017-072A,2026-07-23T05:31:43.438368,14.19745374,.00010635,99.0155,179.3083,358.3816,1.7356,0,U,43010,999,45010,.26583292E-4,.1E-6,0
NOAA 20 (JPSS-1),2017-073A,2026-07-23T07:14:30.522624,14.19517665,.00016526,98.7773,143.4446,115.3492,244.7856,0,U,43013,999,44959,.42539043E-4,.45E-6,0
GOES 17,2018-022A,2026-07-23T06:53:01.625568,1.00271906,.00007035,1.0271,85.1452,57.3628,172.2704,0,U,43226,999,3078,0,-.179E-5,0
SENTINEL-3B,2018-039A,2026-07-23T03:59:30.236352,14.26738051,.00013055,98.6229,271.1788,118.4343,241.6969,0,U,43437,999,42925,.4928206E-4,.76E-6,0
FENGYUN 2H,2018-050A,2026-07-23T03:05:43.624896,1.00267358,.00020433,3.1216,78.6529,123.8118,223.8394,0,U,43491,999,2979,0,-.124E-5,0
METOP-C,2018-087A,2026-07-23T05:55:53.111136,14.21504413,.00020703,98.6623,263.1876,83.3815,276.7598,0,U,43689,999,39995,.50534398E-4,.67E-6,0
GEO-KOMPSAT-2A,2018-100A,2026-07-23T06:45:02.236032,1.00271143,.00025275,0.0189,95.6445,2.9354,71.9532,0,U,43823,999,2799,0,-.339E-5,0
METEOR-M2 2,2019-038A,2026-07-23T06:44:24.323712,14.24375321,.00002194,98.9174,192.1029,350.0703,10.0471,0,U,44387,999,36643,.15806956E-3,.32E-5,0
ARKTIKA-M 1,2021-016A,2026-07-17T21:31:16.955328,2.00610215,.72985164,63.2571,53.1467,270.0868,14.5016,0,U,47719,999,3940,0,-.295E-5,0
FENGYUN 3E,2021-062A,2026-07-23T06:44:14.855136,14.19907225,.00018462,98.7513,207.2879,25.4164,334.7103,0,U,49008,999,26170,.12772801E-3,.227E-5,0
GOES 18,2022-021A,2026-07-23T07:17:29.025888,1.00271141,.00005537,0.0154,76.4488,69.0245,127.9320,0,U,51850,999,695,0,0,0
NOAA 21 (JPSS-2),2022-150A,2026-07-23T06:19:19.841376,14.19542003,.00029149,98.7059,142.4468,90.1668,269.9842,0,U,54234,999,19166,.26365767E-4,.12E-6,0
METEOSAT-12 (MTG-I1),2022-170C,2026-07-23T06:08:20.753664,1.00270121,.00041662,0.7333,21.0463,81.1525,290.4751,0,U,54743,999,1334,0,-.4E-7,0
TIANMU-1 03,2023-039A,2026-07-23T07:39:54.945216,15.48223410,.00019076,97.5251,19.7330,354.4161,5.7068,0,U,55973,999,18642,.30595972E-3,.16029E-3,0
TIANMU-1 04,2023-039B,2026-07-23T07:04:05.956896,15.48855557,.0002225,97.5189,18.8644,340.0023,20.1140,0,U,55974,999,18643,.31361093E-3,.16802E-3,0
TIANMU-1 05,2023-039C,2026-07-23T07:14:46.216320,15.48145431,.00022842,97.5232,19.3167,26.2458,333.8907,0,U,55975,999,18640,.30454517E-3,.15912E-3,0
TIANMU-1 06,2023-039D,2026-07-23T07:12:20.908800,15.48749580,.00022886,97.5240,19.9876,14.2953,345.8361,0,U,55976,999,18643,.30914299E-3,.16499E-3,0
FENGYUN 3G,2023-055A,2026-07-23T06:11:24.230976,15.54076137,.00068086,49.9913,159.9499,94.1896,265.9850,0,U,56232,999,18561,.37674234E-3,.24549E-3,0
METEOR-M2 3,2023-091A,2026-07-23T06:48:15.437664,14.24049399,.00050412,98.6063,258.5192,72.2516,287.9213,0,U,57166,999,15965,.14390364E-4,-.1E-6,0
TIANMU-1 07,2023-101A,2026-07-23T07:58:51.546720,15.30185286,.0003117,97.2576,254.1752,47.7059,312.4446,0,U,57399,999,16717,.22422343E-3,.6475E-4,0
TIANMU-1 08,2023-101B,2026-07-23T07:10:41.377728,15.30187899,.00037878,97.2566,253.9080,23.7304,336.4111,0,U,57400,999,16716,.22476076E-3,.6492E-4,0
TIANMU-1 09,2023-101C,2026-07-23T06:45:32.914080,15.30231416,.00037206,97.2524,253.2883,45.8645,314.2901,0,U,57401,999,16716,.23496807E-3,.6799E-4,0
TIANMU-1 10,2023-101D,2026-07-23T05:59:52.686240,15.30204480,.00048869,97.2603,254.3448,31.5401,328.6132,0,U,57402,999,16715,.22070099E-3,.6377E-4,0
FENGYUN 3F,2023-111A,2026-07-23T06:19:49.617408,14.19944413,.00011133,98.6820,273.5971,75.1404,284.9896,0,U,57490,999,15398,.31099268E-4,.23E-6,0
ARKTIKA-M 2,2023-198A,2026-07-21T03:45:39.718944,2.00607150,.69126494,63.2169,150.5623,267.3229,18.7284,0,U,58584,999,1900,0,.142E-5,0
TIANMU-1 11,2023-205A,2026-07-23T06:54:07.896960,15.27323394,.00072726,97.3449,225.2846,226.3756,133.6881,0,U,58645,999,14303,.2192328E-3,.5797E-4,0
TIANMU-1 12,2023-205B,2026-07-22T16:07:03.245376,15.27003015,.00064874,97.3438,224.4213,209.2071,150.8807,0,U,58646,999,14292,.15785076E-3,.4112E-4,0
TIANMU-1 13,2023-205C,2026-07-23T07:03:52.748928,15.27149714,.0006759,97.3466,225.3179,181.5550,178.5669,0,U,58647,999,14301,.2205116E-3,.58E-4,0
TIANMU-1 14,2023-205D,2026-07-23T06:41:04.375968,15.27193552,.00073443,97.3403,224.4559,188.5228,171.5888,0,U,58648,999,14301,.22993875E-3,.606E-4,0
TIANMU-1 19,2023-208A,2026-07-23T06:43:20.912160,15.32070041,.0005387,97.4523,320.7826,169.9566,190.1784,0,U,58660,999,14285,.30011756E-3,.9219E-4,0
